NORAD_CAT_ID,OBJECT_NAME,OBJECT_TYPE,EPOCH,MEAN_MOTION,ECCENTRICITY,INCLINATION,RA_OF_ASC_NODE,ARG_OF_PERICENTER,MEAN_ANOMALY,BSTAR,MEAN_MOTION_DOT,MEAN_MOTION_DDOT,TLE_LINE0,TLE_LINE1,TLE_LINE2,SEMIMAJOR_AXIS,PERIOD,APOGEE,PERIGEE,DECAYED
51974.0,STARLINK-3672,PAYLOAD,2023-06-16 08:02:59,15.05584716,0.0001116,53.066,187.969,91.0014,269.1102,0.00010355,1.23e-05,0.0,0 STARLINK-3672,1 51974U 22025U   23167.33541355  .00001230  00000-0  10355-3 0  9998,2 51974  53.0660 187.9690 0001116  91.0014 269.1102 15.05584716 71687,6927.848,95.644,550.487,548.94,0.0
51974.0,STARLINK-3672,PAYLOAD,2023-06-17 09:32:27,15.05577092,0.0001054,53.0649,183.2082,89.0796,271.0313,-1.4802e-05,-4.95e-06,0.0,0 STARLINK-3672,1 51974U 22025U   23168.39754579 -.00000495  00000-0 -14802-4 0  9995,2 51974  53.0649 183.2082 0001054  89.0796 271.0313 15.05577092 71846,6927.872,95.644,550.467,549.007,0.0
51974.0,STARLINK-3672,PAYLOAD,2023-06-17 17:30:25,15.0557775,0.0001059,53.0645,181.7203,88.6506,271.4604,-1.2939e-05,-4.68e-06,0.0,0 STARLINK-3672,1 51974U 22025U   23168.72946019 -.00000468  00000-0 -12939-4 0  9993,2 51974  53.0645 181.7203 0001059  88.6506 271.4604 15.05577750 70802,6927.87,95.644,550.468,549.001,0.0
51974.0,STARLINK-3672,PAYLOAD,2023-06-18 11:01:55,15.05581174,0.0001039,53.0639,178.4471,86.8842,273.2266,2.3281e-05,6e-07,0.0,0 STARLINK-3672,1 51974U 22025U   23169.45966963  .00000060  00000-0  23281-4 0  9992,2 51974  53.0639 178.4471 0001039  86.8842 273.2266 15.05581174 70917,6927.859,95.644,550.444,549.004,0.0
51974.0,STARLINK-3672,PAYLOAD,2023-06-18 17:24:17,15.05581659,9.82e-05,53.0627,177.2574,97.308,262.802,3.9267e-05,2.93e-06,0.0,0 STARLINK-3672,1 51974U 22025U   23169.72520007  .00000293  00000-0  39267-4 0  9996,2 51974  53.0627 177.2574 0000982  97.3080 262.8020 15.05581659 72048,6927.858,95.644,550.403,549.042,0.0
51974.0,STARLINK-3672,PAYLOAD,2023-06-19 01:22:15,15.05550748,0.0001305,53.0623,175.7693,99.7087,260.4049,0.00054015,7.593e-05,0.0,0 STARLINK-3672,1 51974U 22025U   23170.05711832  .00007593  00000-0  54015-3 0  9999,2 51974  53.0623 175.7693 0001305  99.7087 260.4049 15.05550748 72097,6927.953,95.646,550.722,548.914,0.0
51974.0,STARLINK-3672,PAYLOAD,2023-06-19 09:20:11,15.05581811,0.0001031,53.062,174.2815,91.3453,268.7654,8.3861e-05,9.43e-06,0.0,0 STARLINK-3672,1 51974U 22025U   23170.38902766  .00000943  00000-0  83861-4 0  9997,2 51974  53.0620 174.2815 0001031  91.3453 268.7654 15.05581811 72149,6927.857,95.644,550.437,549.008,0.0
51974.0,STARLINK-3672,PAYLOAD,2023-06-19 17:18:09,15.05579421,0.0001048,53.0619,172.7936,88.8296,271.2813,9.2969e-05,1.076e-05,0.0,0 STARLINK-3672,1 51974U 22025U   23170.72094376  .00001076  00000-0  92969-4 0  9991,2 51974  53.0619 172.7936 0001048  88.8296 271.2813 15.05579421 71103,6927.865,95.644,550.456,549.004,0.0
51974.0,STARLINK-3672,PAYLOAD,2023-06-20 06:02:53,15.05579309,0.0001098,53.0612,170.413,87.2844,272.827,5.8176e-05,5.69e-06,0.0,0 STARLINK-3672,1 51974U 22025U   23171.25200850  .00000569  00000-0  58176-4 0  9994,2 51974  53.0612 170.4130 0001098  87.2844 272.8270 15.05579309 71181,6927.865,95.644,550.491,548.969,0.0
51974.0,STARLINK-3672,PAYLOAD,2023-06-21 05:56:45,15.05586825,0.0001155,53.0598,165.9473,86.1222,273.9899,7.543e-05,8.2e-06,0.0,0 STARLINK-3672,1 51974U 22025U   23172.24774489  .00000820  00000-0  75430-4 0  9990,2 51974  53.0598 165.9473 0001155  86.1222 273.9899 15.05586825 72423,6927.842,95.644,550.507,548.907,0.0
51974.0,STARLINK-3672,PAYLOAD,2023-06-21 17:05:53,15.05571132,0.0001176,53.059,163.8653,87.0951,273.0172,0.00026028,3.514e-05,0.0,0 STARLINK-3672,1 51974U 22025U   23172.71243040  .00003514  00000-0  26028-3 0  9997,2 51974  53.0590 163.8653 0001176  87.0951 273.0172 15.05571132 72491,6927.89,95.645,550.57,548.94,0.0
51974.0,STARLINK-3672,PAYLOAD,2023-06-22 09:01:48,15.05581702,0.0001106,53.057,160.8881,87.987,272.1246,4.2163e-05,3.35e-06,0.0,0 STARLINK-3672,1 51974U 22025U   23173.37625541  .00000335  00000-0  42163-4 0  9997,2 51974  53.0570 160.8881 0001106  87.9870 272.1246 15.05581702 72598,6927.858,95.644,550.489,548.956,0.0
51974.0,STARLINK-3672,PAYLOAD,2023-06-23 15:18:02,15.05580728,0.0001047,53.0548,155.2351,88.8334,271.2775,2.3731e-06,-2.44e-06,0.0,0 STARLINK-3672,1 51974U 22025U   23174.63753086 -.00000244  00000-0  23731-5 0  9994,2 51974  53.0548 155.2351 0001047  88.8334 271.2775 15.05580728 72787,6927.861,95.644,550.451,549.0,0.0
51974.0,STARLINK-3672,PAYLOAD,2023-06-25 02:21:03,15.05580834,0.0001152,53.053,148.6861,90.8985,269.2135,3.9795e-05,3.01e-06,0.0,0 STARLINK-3672,1 51974U 22025U   23176.09795429  .00000301  00000-0  39795-4 0  9992,2 51974  53.0530 148.6861 0001152  90.8985 269.2135 15.05580834 73003,6927.86,95.644,550.523,548.927,0.0
51974.0,STARLINK-3672,PAYLOAD,2023-06-26 07:01:42,15.05577831,0.0001165,53.0521,143.329,99.082,261.03,7.1208e-05,7.58e-06,0.0,0 STARLINK-3672,1 51974U 22025U   23177.29284801  .00000758  00000-0  71208-4 0  9993,2 51974  53.0521 143.3290 0001165  99.0820 261.0300 15.05577831 73180,6927.87,95.644,550.542,548.927,0.0
51974.0,STARLINK-3672,PAYLOAD,2023-06-27 14:53:31,15.05581083,0.0001184,53.0524,137.376,94.69,265.4224,8.3729e-05,9.41e-06,0.0,0 STARLINK-3672,1 51974U 22025U   23178.62050302  .00000941  00000-0  83729-4 0  9993,2 51974  53.0524 137.3760 0001184  94.6900 265.4224 15.05581083 73388,6927.86,95.644,550.545,548.904,0.0
51974.0,STARLINK-3672,PAYLOAD,2023-06-29 03:32:07,15.05581531,0.0001281,53.0534,130.53,91.0186,269.0949,-1.349e-07,-2.81e-06,0.0,0 STARLINK-3672,1 51974U 22025U   23180.14731013 -.00000281  00000-0 -13490-6 0  9997,2 51974  53.0534 130.5300 0001281  91.0186 269.0949 15.05581531 73617,6927.858,95.644,550.611,548.836,0.0
51974.0,STARLINK-3672,PAYLOAD,2023-07-01 12:53:24,15.0558076,0.0001246,53.0535,119.8165,94.8798,265.2333,5.1618e-05,4.73e-06,0.0,0 STARLINK-3672,1 51974U 22025U   23182.53709352  .00000473  00000-0  51618-4 0  9996,2 51974  53.0535 119.8165 0001246  94.8798 265.2333 15.05580760 73975,6927.861,95.644,550.589,548.862,0.0
51974.0,STARLINK-3672,PAYLOAD,2023-07-02 23:56:25,15.0558105,0.0001263,53.0535,113.2683,87.6149,272.4985,2.5282e-05,8.9e-07,0.0,0 STARLINK-3672,1 51974U 22025U   23183.99751759  .00000089  00000-0  25282-4 0  9996,2 51974  53.0535 113.2683 0001263  87.6149 272.4985 15.05581050 74198,6927.86,95.644,550.6,548.85,0.0
51974.0,STARLINK-3672,PAYLOAD,2023-07-04 01:25:52,15.05583357,0.0001308,53.0533,108.506,87.2949,272.8189,1.4775e-05,-6.4e-07,0.0,0 STARLINK-3672,1 51974U 22025U   23185.05964116 -.00000064  00000-0  14775-4 0  9997,2 51974  53.0533 108.5060 0001308  87.2949 272.8189 15.05583357 74356,6927.853,95.644,550.624,548.811,0.0
51974.0,STARLINK-3672,PAYLOAD,2023-07-05 04:30:56,15.05582764,0.0001367,53.0533,103.4462,86.4724,273.6421,3.5613e-05,2.4e-06,0.0,0 STARLINK-3672,1 51974U 22025U   23186.18814873  .00000240  00000-0  35613-4 0  9995,2 51974  53.0533 103.4462 0001367  86.4724 273.6421 15.05582764 74521,6927.854,95.644,550.666,548.772,0.0
51974.0,STARLINK-3672,PAYLOAD,2023-07-06 10:47:10,15.05582225,0.0001341,53.0533,97.7906,84.7975,275.3166,5.116e-06,-2.05e-06,0.0,0 STARLINK-3672,1 51974U 22025U   23187.44942476 -.00000205  00000-0  51160-5 0  9994,2 51974  53.0533  97.7906 0001341  84.7975 275.3166 15.05582225 74718,6927.856,95.644,550.65,548.792,0.0
51974.0,STARLINK-3672,PAYLOAD,2023-07-07 23:25:46,15.0558085,0.0001316,53.053,90.9448,86.8328,273.2811,3.139e-05,1.78e-06,0.0,0 STARLINK-3672,1 51974U 22025U   23188.97623171  .00000178  00000-0  31390-4 0  9991,2 51974  53.0530  90.9448 0001316  86.8328 273.2811 15.05580850 74949,6927.86,95.644,550.637,548.814,0.0
51974.0,STARLINK-3672,PAYLOAD,2023-07-09 02:30:49,15.05579828,0.0001356,53.0529,85.8851,91.0355,269.0789,2.6773e-05,1.11e-06,0.0,0 STARLINK-3672,1 51974U 22025U   23190.10474170  .00000111  00000-0  26773-4 0  9998,2 51974  53.0529  85.8851 0001356  91.0355 269.0789 15.05579828 75110,6927.863,95.644,550.668,548.789,0.0
51974.0,STARLINK-3672,PAYLOAD,2023-07-10 10:22:38,15.05585125,0.0001343,53.053,79.9328,89.6212,270.4931,5.4646e-05,5.17e-06,0.0,0 STARLINK-3672,1 51974U 22025U   23191.43239310  .00000517  00000-0  54646-4 0  9990,2 51974  53.0530  79.9328 0001343  89.6212 270.4931 15.05585125 75310,6927.847,95.644,550.643,548.782,0.0
51974.0,STARLINK-3672,PAYLOAD,2023-07-11 02:18:33,15.0557988,0.0001341,53.0533,76.9561,91.3393,268.775,1.2674e-05,-9.5e-07,0.0,0 STARLINK-3672,1 51974U 22025U   23192.09622578 -.00000095  00000-0  12674-4 0  9992,2 51974  53.0533  76.9561 0001341  91.3393 268.7750 15.05579880 75418,6927.863,95.644,550.657,548.799,0.0
51974.0,STARLINK-3672,PAYLOAD,2023-07-11 23:01:13,15.05600253,0.0001307,53.0534,73.0891,91.6242,268.4896,0.00013908,1.749e-05,0.0,0 STARLINK-3672,1 51974U 22025U   23192.95917877  .00001749  00000-0  13908-3 0  9992,2 51974  53.0534  73.0891 0001307  91.6242 268.4896 15.05600253 75542,6927.801,95.643,550.571,548.76,0.0
51974.0,STARLINK-3672,PAYLOAD,2023-07-12 08:34:46,15.05596,0.0001338,53.0538,71.3016,94.7455,265.3686,6.4241e-05,6.57e-06,0.0,0 STARLINK-3672,1 51974U 22025U   23193.35747727  .00000657  00000-0  64241-4 0  9996,2 51974  53.0538  71.3016 0001338  94.7455 265.3686 15.05596000 75604,6927.814,95.643,550.606,548.752,0.0
51974.0,STARLINK-3672,PAYLOAD,2023-07-12 16:32:43,15.05585275,0.0001519,53.0551,69.8194,89.9833,270.133,5.6282e-05,5.41e-06,0.0,0 STARLINK-3672,1 51974U 22025U   23193.68939792  .00000541  00000-0  56282-4 0  9995,2 51974  53.0551  69.8194 0001519  89.9833 270.1330 15.05585275 75652,6927.847,95.644,550.764,548.659,0.0
51974.0,STARLINK-3672,PAYLOAD,2023-07-13 02:06:18,15.05569105,0.0001251,53.0532,68.0279,110.7207,249.3916,-0.00012987,-2.17e-05,0.0,0 STARLINK-3672,1 51974U 22025U   23194.08771049 -.00002170  00000-0 -12987-3 0  9994,2 51974  53.0532  68.0279 0001251 110.7207 249.3916 15.05569105 75716,6927.896,95.645,550.628,548.895,0.0
